IRIDIUM 166             
1 43570U 18061B   25136.73077032  .00000119  00000+0  35537-4 0  9998
2 43570  86.4006 222.3669 0002545  96.1976 263.9509 14.34217828356579
IRIDIUM 158             
1 43571U 18061C   25136.76882549  .00000043  00000+0  83388-5 0  9993
2 43571  86.4007 222.3609 0002281 100.3439 259.8014 14.34217899356544
IRIDIUM 165             
1 43572U 18061D   25136.72443208  .00000250  00000+0  82273-4 0  9996
2 43572  86.4006 222.4174 0002419  91.2711 268.8762 14.34218038356564
IRIDIUM 155             
1 43573U 18061E   25136.75614051  .00000000  00000+0 -70592-5 0  9992
2 43573  86.4004 222.2937 0002318 102.1227 258.0229 14.34217564356539
IRIDIUM 154             
1 43574U 18061F   25136.73711252  .00000104  00000+0  30123-4 0  9991
2 43574  86.4008 222.4155 0002299  96.0863 264.0594 14.34217544356588
IRIDIUM 163             
1 43575U 18061G   25136.78785264  .00000014  00000+0 -21571-5 0  9990
2 43575  86.4007 222.3223 0002026  98.7857 261.3568 14.34217694356568
IRIDIUM 156             
1 43576U 18061H   25136.76248338  .00000070  00000+0  18060-4 0  9994
2 43576  86.4006 222.3396 0002575 101.1481 259.0005 14.34217951356555
IRIDIUM 164             
1 43577U 18061J   25136.74345531 -.00000029  00000+0 -17570-4 0  9997
2 43577  86.4008 222.3815 0002375  90.6540 269.4927 14.34217419356591
